#aV2020  6  1  0  0  0.00000000     288 DD+AD WGS84 FIT  NGA
## 2108  86400.00000000   300.00000000 59001 0.0000000000000
+   32     1  2  3  4  5  6  7  8  9 10 11 12 13 14 15 16 17
+         18 19 20 21 22 23 24 25 26 27 28 29 30 31 32  0  0
+          0  0  0  0  0  0  0  0  0  0  0  0  0  0  0  0  0
+          0  0  0  0  0  0  0  0  0  0  0  0  0  0  0  0  0
+          0  0  0  0  0  0  0  0  0  0  0  0  0  0  0  0  0
++         2  2  2  2  2  2  2  2  2  2  2  2  2  2  2  2  2
++         2  2  2  2  2  2  2  2  2  2  2  2  2  2  2  0  0
++         0  0  0  0  0  0  0  0  0  0  0  0  0  0  0  0  0
++         0  0  0  0  0  0  0  0  0  0  0  0  0  0  0  0  0
++         0  0  0  0  0  0  0  0  0  0  0  0  0  0  0  0  0
%c cc cc ccc ccc cccc cccc cccc cccc ccccc ccccc ccccc ccccc
%c cc cc ccc ccc cccc cccc cccc cccc ccccc ccccc ccccc ccccc
%f  0.0000000  0.000000000  0.00000000000  0.000000000000000
%f  0.0000000  0.000000000  0.00000000000  0.000000000000000
%i    0    0    0    0      0      0      0      0         0
%i    0    0    0    0      0      0      0      0         0
/*      NGA, ST. LOUIS,MO.                                  
/*   EPHEMERIS COMPUTED FROM 2 DAYS OF DATA                 
/*   EPOCHA v5 SMOOTHER                                     
/*   G1762 IERS2010 SATAF SATAPC                            
*  2020  6  1  7 40  0.00000000
P  1 -19955.170539 -11986.061605  12873.493621   -387.136670                    
V  1  -8742.464961 -14144.341266 -25936.849902     -0.026929                    
P  2  12510.420451  22329.679484   7829.707174   -465.129816                    
V  2  -7909.988546  -5113.485811  29603.379326     -0.060543                    
P  3 -15444.046692  -1512.649800  21481.145986   -194.489264                    
V  3   9949.925314 -25556.996993   5441.483649     -0.124837                    
P  4 -26107.758487   -798.404853   4921.200929    -96.806272                    
V  4   5916.505465  -3374.989236  30888.410455     -0.048895                    
P  5   4793.592424  20390.300768 -16350.279500    -13.775503                    
V  5  -9192.582545  18565.420715  20826.827637     -0.007472                    
P  6   2635.817508  21004.773335  16063.232599   -281.474694                    
V  6 -13616.332961 -15101.580213  22096.925592     -0.063527                    
P  7 -14515.090311   5773.820868 -21221.834990   -294.270984                    
V  7 -16435.390840 -22228.316987   4638.779516     -0.087472                    
P  8 -20603.613321  -7436.048757 -15189.398525    -35.996361                    
V  8  18723.969576  -4511.157616 -22919.953123     -0.013052                    
P  9 -24582.011190   8082.373457  -6077.691831   -228.151710                    
V  9  -8014.311916  -1766.686842  30287.456546     -0.070755                    
P 10  11502.130623 -23656.162923  -2503.231476   -358.245204                    
V 10   1403.924306   4141.659411 -31803.389688     -0.113096                    
P 11 -23264.906187 -12411.243653  -1513.134662   -261.187357                    
V 11   3221.295779  -3525.347786 -30778.093728      0.106675                    
P 12  14791.353988   2920.794276  21614.072509    111.262369                    
V 12 -12017.600898  25269.660697   4908.334635     -0.044322                    
P 13  13123.323577  13110.074269 -19162.035024     14.659094                    
V 13 -24023.625883   1354.138590 -15529.460382      0.031389                    
P 14   2574.910085 -15420.476591  21805.360470     -9.017246                    
V 14  26866.267522  -1025.245512  -4145.316635      0.026713                    
P 15  21758.941212   5961.984360 -14620.894069   -227.289706                    
V 15 -16872.998998   6665.279545 -22507.464906      0.026070                    
P 16  -3959.595790 -18958.339646 -18186.951901   -165.076042                    
V 16  11790.285134 -19544.304792  18454.610641     -0.045976                    
P 17 -12711.821589  13791.286546  19208.618275    273.867912                    
V 17 -23470.133234    819.281125 -16528.274420      0.060079                    
P 18  14360.077450  -5766.262947 -21598.513711    207.290513                    
V 18  15898.927807  22305.048419   4596.411124      0.112883                    
P 19  -4600.951073  14489.836372  21475.034421   -151.117961                    
V 19 -27929.419626    409.194070  -6198.154383      0.050898                    
P 20  14937.067587 -17083.243022 -13699.226824    527.596296                    
V 20  -1558.575695  17601.037494 -24002.734551     -0.000668                    
P 21   8943.344844 -12397.507180 -21009.735041      5.996706                    
V 21  19086.256638  21081.925959  -3895.241213      0.048393                    
P 22 -12770.714791 -10992.317463  20771.477050   -780.075889                    
V 22   8555.608862 -24546.777768  -7667.644613      0.016703                    
P 23 -22341.519529  10719.282155  -9735.505602   -109.484720                    
V 23 -13078.386530   -729.616362  27715.864635      0.031588                    
P 24  21141.375021  12172.870991  10736.638377    -13.748188                    
V 24   6959.702738  12308.905616 -26793.915960     -0.005045                    
P 25  17046.724348  -7994.468357  18390.092491      8.952764                    
V 25  -7604.545862  22740.926024  16972.705595      0.034093                    
P 26   3338.368074 -25072.952716  -7753.208998    217.174750                    
V 26   6456.523432  -8142.291229  29461.619435      0.070732                    
P 27 -10497.431682 -12831.182915 -20970.390644   -308.950321                    
V 27  25856.624513  -4066.100390 -10199.509578     -0.100202                    
P 28 -12364.245656  23586.816933    -34.644138    712.514360                    
V 28  -1583.933277  -1671.976418 -32027.859960     -0.031923                    
P 29  26165.150256  -3642.405273  -2923.995721   -117.686153                    
V 29   3766.682983   1749.745240  31993.145988     -0.088512                    
P 30  -6331.860566  16216.017620 -19960.837300   -232.359436                    
V 30 -16062.241825 -19952.070471 -11303.546094     -0.080386                    
P 31  -3116.958116 -21697.185620  14626.613327    -46.203377                    
V 31  13102.211579  13755.592157  23579.195746     -0.024959                    
P 32  11135.611597 -15034.772760  18880.227024    291.721167                    
V 32  23837.930267  -1853.656962 -15749.656976      0.072402                    
EOF
